[{"OBJECT_NAME":"STARLINK-33801","OBJECT_ID":"2025-099M","EPOCH":"2026-03-09T08:02:29.018976","MEAN_MOTION":15.27599355,"ECCENTRICITY":7.641e-5,"INCLINATION":42.9973,"RA_OF_ASC_NODE":178.0831,"ARG_OF_PERICENTER":282.6824,"MEAN_ANOMALY":77.3942,"EPHEMERIS_TYPE":0,"CLASSIFICATION_TYPE":"U","NORAD_CAT_ID":63963,"ELEMENT_SET_NO":999,"REV_AT_EPOCH":4728,"BSTAR":0.00091148224,"MEAN_MOTION_DOT":0.00024919,"MEAN_MOTION_DDOT":0},{"OBJECT_NAME":"KUIPER-00177","OBJECT_ID":"2026-030C","EPOCH":"2026-03-09T22:40:13.687104","MEAN_MOTION":15.35467467,"ECCENTRICITY":0.00021592,"INCLINATION":51.8837,"RA_OF_ASC_NODE":217.7875,"ARG_OF_PERICENTER":172.5497,"MEAN_ANOMALY":187.5522,"EPHEMERIS_TYPE":0,"CLASSIFICATION_TYPE":"U","NORAD_CAT_ID":67766,"ELEMENT_SET_NO":999,"REV_AT_EPOCH":513,"BSTAR":-0.015747205,"MEAN_MOTION_DOT":-0.00515419,"MEAN_MOTION_DDOT":0}]
